start=new Date('2023-03-07T00:00:00.000Z').valueOf();
sats=[{"MEAN_MOTION":"15.08852388","EPOCH":"2023-03-06T17:24:17.927136","MEAN_ELEMENT_THEORY":"SGP4","TLE_LINE1":"1 53536U 22101K   23065.72520749  .00014923  00000-0  95337-3 0  9999","DECAY_DATE":null,"SITE":"AFETR","ARG_OF_PERICENTER":"71.0972","INCLINATION":"53.2178","MEAN_MOTION_DOT":"0.00014923","OBJECT_TYPE":"PAYLOAD","EPHEMERIS_TYPE":"0","ECCENTRICITY":"0.00021340","REF_FRAME":"TEME","PERIAPSIS":"538.231","MEAN_MOTION_DDOT":"0.0000000000000","CLASSIFICATION_TYPE":"U","LAUNCH_DATE":"2022-08-19","OBJECT_NAME":"STARLINK-4053","ELEMENT_SET_NO":"999","COUNTRY_CODE":"US","REV_AT_EPOCH":"3039","RA_OF_ASC_NODE":"317.6031","OBJECT_ID":"2022-101K","BSTAR":"0.00095337000000","TIME_SYSTEM":"UTC","RCS_SIZE":"LARGE","TLE_LINE2":"2 53536  53.2178 317.6031 0002134  71.0972 289.0251 15.08852388 30397","PERIOD":"95.437","MEAN_ANOMALY":"289.0251","GP_ID":"227630558","FILE":"3853141","SEMIMAJOR_AXIS":"6917.843","NORAD_CAT_ID":"53536","CENTER_NAME":"EARTH","APOAPSIS":"541.184"},{"LAUNCH_DATE":"2022-08-19","CLASSIFICATION_TYPE":"U","MEAN_MOTION_DDOT":"0.0000000000000","PERIAPSIS":"538.886","REF_FRAME":"TEME","ECCENTRICITY":"0.00012450","EPHEMERIS_TYPE":"0","OBJECT_TYPE":"PAYLOAD","INCLINATION":"53.2157","MEAN_MOTION_DOT":"0.00014478","ARG_OF_PERICENTER":"66.0321","DECAY_DATE":null,"SITE":"AFETR","TLE_LINE1":"1 53537U 22101L   23065.74267824  .00014478  00000-0  92586-3 0  9992","EPOCH":"2023-03-06T17:49:27.399936","MEAN_MOTION":"15.08839388","MEAN_ELEMENT_THEORY":"SGP4","APOAPSIS":"540.609","CENTER_NAME":"EARTH","NORAD_CAT_ID":"53537","SEMIMAJOR_AXIS":"6917.882","FILE":"3853141","GP_ID":"227628808","MEAN_ANOMALY":"294.0801","PERIOD":"95.438","TLE_LINE2":"2 53537  53.2157 327.4912 0001245  66.0321 294.0801 15.08839388 30264","RCS_SIZE":"LARGE","TIME_SYSTEM":"UTC","BSTAR":"0.00092586000000","OBJECT_ID":"2022-101L","RA_OF_ASC_NODE":"327.4912","REV_AT_EPOCH":"3026","COUNTRY_CODE":"US","ELEMENT_SET_NO":"999","OBJECT_NAME":"STARLINK-4120"},{"ECCENTRICITY":"0.00011200","REF_FRAME":"TEME","EPHEMERIS_TYPE":"0","OBJECT_TYPE":"PAYLOAD","MEAN_MOTION_DOT":"-0.00002158","INCLINATION":"53.2186","ARG_OF_PERICENTER":"82.0543","DECAY_DATE":null,"SITE":"AFETR","TLE_LINE1":"1 53538U 22101M   23065.71784106 -.00002158  00000-0 -11760-3 0  9996","MEAN_MOTION":"15.08832231","EPOCH":"2023-03-06T17:13:41.467584","MEAN_ELEMENT_THEORY":"SGP4","CLASSIFICATION_TYPE":"U","LAUNCH_DATE":"2022-08-19","MEAN_MOTION_DDOT":"0.0000000000000","PERIAPSIS":"538.994","RA_OF_ASC_NODE":"317.5968","COUNTRY_CODE":"US","REV_AT_EPOCH":"3108","ELEMENT_SET_NO":"999","OBJECT_NAME":"STARLINK-4118","APOAPSIS":"540.544","CENTER_NAME":"EARTH","NORAD_CAT_ID":"53538","SEMIMAJOR_AXIS":"6917.904","FILE":"3853141","GP_ID":"227629058","MEAN_ANOMALY":"278.0576","PERIOD":"95.438","TLE_LINE2":"2 53538  53.2186 317.5968 0001120  82.0543 278.0576 15.08832231 31086","RCS_SIZE":"LARGE","TIME_SYSTEM":"UTC","BSTAR":"-0.00011760000000","OBJECT_ID":"2022-101M"},{"ELEMENT_SET_NO":"999","OBJECT_NAME":"STARLINK-4123","RA_OF_ASC_NODE":"327.5248","REV_AT_EPOCH":"3026","COUNTRY_CODE":"US","RCS_SIZE":"LARGE","TIME_SYSTEM":"UTC","PERIOD":"95.437","TLE_LINE2":"2 53539  53.2164 327.5248 0001270  91.0313 269.0825 15.08850104 30261","OBJECT_ID":"2022-101N","BSTAR":"0.00133900000000","SEMIMAJOR_AXIS":"6917.850","FILE":"3853141","APOAPSIS":"540.593","CENTER_NAME":"EARTH","NORAD_CAT_ID":"53539","MEAN_ANOMALY":"269.0825","GP_ID":"227630308","SITE":"AFETR","DECAY_DATE":null,"ARG_OF_PERICENTER":"91.0313","MEAN_MOTION":"15.08850104","EPOCH":"2023-03-06T17:38:50.440992","MEAN_ELEMENT_THEORY":"SGP4","TLE_LINE1":"1 53539U 22101N   23065.73530603  .00021092  00000-0  13390-2 0  9996","ECCENTRICITY":"0.00012700","REF_FRAME":"TEME","OBJECT_TYPE":"PAYLOAD","INCLINATION":"53.2164","MEAN_MOTION_DOT":"0.00021092","EPHEMERIS_TYPE":"0","PERIAPSIS":"538.836","MEAN_MOTION_DDOT":"0.0000000000000","LAUNCH_DATE":"2022-08-19","CLASSIFICATION_TYPE":"U"},{"ARG_OF_PERICENTER":"50.4370","DECAY_DATE":null,"SITE":"AFETR","TLE_LINE1":"1 53540U 22101P   23065.71416217 -.00001747  00000-0 -91781-4 0  9999","MEAN_MOTION":"15.08820415","EPOCH":"2023-03-06T17:08:23.611488","MEAN_ELEMENT_THEORY":"SGP4","ECCENTRICITY":"0.00010650","REF_FRAME":"TEME","EPHEMERIS_TYPE":"0","OBJECT_TYPE":"PAYLOAD","MEAN_MOTION_DOT":"-0.00001747","INCLINATION":"53.2176","PERIAPSIS":"539.068","CLASSIFICATION_TYPE":"U","LAUNCH_DATE":"2022-08-19","MEAN_MOTION_DDOT":"0.0000000000000","ELEMENT_SET_NO":"999","OBJECT_NAME":"STARLINK-4486","RA_OF_ASC_NODE":"317.6142","REV_AT_EPOCH":"3108","COUNTRY_CODE":"US","PERIOD":"95.439","TLE_LINE2":"2 53540  53.2176 317.6142 0001065  50.4370 309.6716 15.08820415 31086","RCS_SIZE":"LARGE","TIME_SYSTEM":"UTC","BSTAR":"-0.00009178100000","OBJECT_ID":"2022-101P","CENTER_NAME":"EARTH","APOAPSIS":"540.542","NORAD_CAT_ID":"53540","SEMIMAJOR_AXIS":"6917.940","FILE":"3853141","GP_ID":"227630059","MEAN_ANOMALY":"309.6716"},{"PERIAPSIS":"538.865","CLASSIFICATION_TYPE":"U","LAUNCH_DATE":"2022-08-19","MEAN_MOTION_DDOT":"0.0000000000000","ARG_OF_PERICENTER":"78.8641","DECAY_DATE":null,"SITE":"AFETR","TLE_LINE1":"1 53541U 22101Q   23065.72796360  .00005276  00000-0  34930-3 0  9992","MEAN_MOTION":"15.08840385","MEAN_ELEMENT_THEORY":"SGP4","EPOCH":"2023-03-06T17:28:16.055040","ECCENTRICITY":"0.00012710","REF_FRAME":"TEME","EPHEMERIS_TYPE":"0","OBJECT_TYPE":"PAYLOAD","INCLINATION":"53.2151","MEAN_MOTION_DOT":"0.00005276","PERIOD":"95.438","TLE_LINE2":"2 53541  53.2151 327.5573 0001271  78.8641 281.2494 15.08840385 30953","RCS_SIZE":"LARGE","TIME_SYSTEM":"UTC","BSTAR":"0.00034930000000","OBJECT_ID":"2022-101Q","CENTER_NAME":"EARTH","APOAPSIS":"540.623","NORAD_CAT_ID":"53541","SEMIMAJOR_AXIS":"6917.879","FILE":"3853141","GP_ID":"227629308","MEAN_ANOMALY":"281.2494","ELEMENT_SET_NO":"999","OBJECT_NAME":"STARLINK-4485","RA_OF_ASC_NODE":"327.5573","COUNTRY_CODE":"US","REV_AT_EPOCH":"3095"},{"PERIAPSIS":"538.878","MEAN_MOTION_DDOT":"0.0000000000000","CLASSIFICATION_TYPE":"U","LAUNCH_DATE":"2022-08-19","DECAY_DATE":null,"SITE":"AFETR","ARG_OF_PERICENTER":"49.8688","MEAN_MOTION":"15.08839975","EPOCH":"2023-03-06T16:57:47.744640","MEAN_ELEMENT_THEORY":"SGP4","TLE_LINE1":"1 53542U 22101R   23065.70680260  .00011726  00000-0  75361-3 0  9992","ECCENTRICITY":"0.00012540","REF_FRAME":"TEME","OBJECT_TYPE":"PAYLOAD","MEAN_MOTION_DOT":"0.00011726","INCLINATION":"53.2182","EPHEMERIS_TYPE":"0","RCS_SIZE":"LARGE","TIME_SYSTEM":"UTC","PERIOD":"95.438","TLE_LINE2":"2 53542  53.2182 317.6479 0001254  49.8688 310.2414 15.08839975 31086","OBJECT_ID":"2022-101R","BSTAR":"0.00075361000000","SEMIMAJOR_AXIS":"6917.880","FILE":"3853141","CENTER_NAME":"EARTH","APOAPSIS":"540.613","NORAD_CAT_ID":"53542","MEAN_ANOMALY":"310.2414","GP_ID":"227629558","ELEMENT_SET_NO":"999","OBJECT_NAME":"STARLINK-4489","RA_OF_ASC_NODE":"317.6479","REV_AT_EPOCH":"3108","COUNTRY_CODE":"US"},{"PERIOD":"95.439","TLE_LINE2":"2 53543  53.2188 317.6464 0001025  79.3392 280.7715 15.08819056 31086","RCS_SIZE":"LARGE","TIME_SYSTEM":"UTC","BSTAR":"-0.00006715500000","OBJECT_ID":"2022-101S","APOAPSIS":"540.518","CENTER_NAME":"EARTH","NORAD_CAT_ID":"53543","SEMIMAJOR_AXIS":"6917.944","FILE":"3853141","GP_ID":"227629809","MEAN_ANOMALY":"280.7715","ELEMENT_SET_NO":"999","OBJECT_NAME":"STARLINK-4297","RA_OF_ASC_NODE":"317.6464","REV_AT_EPOCH":"3108","COUNTRY_CODE":"US","PERIAPSIS":"539.100","LAUNCH_DATE":"2022-08-19","CLASSIFICATION_TYPE":"U","MEAN_MOTION_DDOT":"0.0000000000000","ARG_OF_PERICENTER":"79.3392","SITE":"AFETR","DECAY_DATE":null,"TLE_LINE1":"1 53543U 22101S   23065.72153814 -.00001356  00000-0 -67155-4 0  9998","MEAN_MOTION":"15.08819056","MEAN_ELEMENT_THEORY":"SGP4","EPOCH":"2023-03-06T17:19:00.895296","ECCENTRICITY":"0.00010250","REF_FRAME":"TEME","EPHEMERIS_TYPE":"0","OBJECT_TYPE":"PAYLOAD","MEAN_MOTION_DOT":"-0.00001356","INCLINATION":"53.2188"},{"PERIAPSIS":"538.897","CLASSIFICATION_TYPE":"U","LAUNCH_DATE":"2022-08-19","MEAN_MOTION_DDOT":"0.0000000000000","ARG_OF_PERICENTER":"100.0007","DECAY_DATE":null,"SITE":"AFETR","TLE_LINE1":"1 53544U 22101T   23065.10327829  .00055513  00000-0  34755-2 0  9990","EPOCH":"2023-03-06T02:28:43.244256","MEAN_MOTION":"15.08874383","MEAN_ELEMENT_THEORY":"SGP4","REF_FRAME":"TEME","ECCENTRICITY":"0.00010750","EPHEMERIS_TYPE":"0","OBJECT_TYPE":"PAYLOAD","INCLINATION":"53.2185","MEAN_MOTION_DOT":"0.00055513","PERIOD":"95.435","TLE_LINE2":"2 53544  53.2185 320.3553 0001075 100.0007 260.1107 15.08874383 30972","RCS_SIZE":"LARGE","TIME_SYSTEM":"UTC","BSTAR":"0.00347550000000","OBJECT_ID":"2022-101T","CENTER_NAME":"EARTH","APOAPSIS":"540.384","NORAD_CAT_ID":"53544","SEMIMAJOR_AXIS":"6917.775","FILE":"3853141","GP_ID":"227630559","MEAN_ANOMALY":"260.1107","ELEMENT_SET_NO":"999","OBJECT_NAME":"STARLINK-4303","RA_OF_ASC_NODE":"320.3553","REV_AT_EPOCH":"3097","COUNTRY_CODE":"US"},{"PERIAPSIS":"539.126","MEAN_MOTION_DDOT":"0.0000000000000","LAUNCH_DATE":"2022-08-19","CLASSIFICATION_TYPE":"U","MEAN_ELEMENT_THEORY":"SGP4","MEAN_MOTION":"15.08878924","EPOCH":"2023-03-06T02:44:36.920544","TLE_LINE1":"1 53545U 22101U   23065.11431621  .00050692  00000-0  31770-2 0  9995","SITE":"AFETR","DECAY_DATE":null,"ARG_OF_PERICENTER":"79.9634","MEAN_MOTION_DOT":"0.00050692","INCLINATION":"53.2179","OBJECT_TYPE":"PAYLOAD","EPHEMERIS_TYPE":"0","REF_FRAME":"TEME","ECCENTRICITY":"0.00007230","OBJECT_ID":"2022-101U","BSTAR":"0.00317700000000","TIME_SYSTEM":"UTC","RCS_SIZE":"LARGE","TLE_LINE2":"2 53545  53.2179 320.3068 0000723  79.9634 280.1440 15.08878924 30995","PERIOD":"95.435","MEAN_ANOMALY":"280.1440","GP_ID":"227628809","FILE":"3853141","SEMIMAJOR_AXIS":"6917.761","NORAD_CAT_ID":"53545","CENTER_NAME":"EARTH","APOAPSIS":"540.127","OBJECT_NAME":"STARLINK-4475","ELEMENT_SET_NO":"999","REV_AT_EPOCH":"3099","COUNTRY_CODE":"US","RA_OF_ASC_NODE":"320.3068"}];
